{
  "type": "FeatureCollection",
  "features": [
    {
      "type": "Feature",
      "properties": {
        "norad_id": 29798,
        "name": "FENGYUN 1C DEB",
        "group": "fengyun-1c-debris",
        "lat": 45.85216925886348,
        "lon": 30.486081997013883,
        "alt_km": 912.9802017566835,
        "timestamp": "2025-12-02T10:50:47.545370+00:00",
        "meta_object_name": "FENGYUN 1C DEB",
        "meta_object_id": "1999-025CQ",
        "meta_epoch": "2025-12-02T04:01:40.772064",
        "meta_mean_motion": 13.9950217,
        "meta_eccentricity": 0.0111193,
        "meta_inclination": 99.2967,
        "meta_ra_of_asc_node": 39.9126,
        "meta_arg_of_pericenter": 301.4514,
        "meta_mean_anomaly": 113.4301,
        "meta_ephemeris_type": 0,
        "meta_classification_type": "U",
        "meta_norad_cat_id": 29798,
        "meta_element_set_no": 999,
        "meta_rev_at_epoch": 95777,
        "meta_bstar": 0.0017454,
        "meta_mean_motion_dot": 2.637e-05,
        "meta_mean_motion_ddot": 0,
        "tle_line1": "1 29798U 99025CQ  25336.16783301  .00002637  00000+0  17454-2 0  9998",
        "tle_line2": "2 29798  99.2967  39.9126 0111193 301.4514 113.4301 13.99502170957778"
      },
      "geometry": {
        "type": "Point",
        "coordinates": [
          30.486081997013883,
          45.85216925886348
        ]
      }
    },
    {
      "type": "Feature",
      "properties": {
        "norad_id": 29800,
        "name": "FENGYUN 1C DEB",
        "group": "fengyun-1c-debris",
        "lat": -69.75016009665302,
        "lon": 155.76163264795312,
        "alt_km": 809.8636678774437,
        "timestamp": "2025-12-02T10:50:47.545380+00:00",
        "meta_object_name": "FENGYUN 1C DEB",
        "meta_object_id": "1999-025CS",
        "meta_epoch": "2025-12-01T01:17:16.758816",
        "meta_mean_motion": 13.98467848,
        "meta_eccentricity": 0.01329861,
        "meta_inclination": 98.2913,
        "meta_ra_of_asc_node": 357.7793,
        "meta_arg_of_pericenter": 260.0259,
        "meta_mean_anomaly": 155.85,
        "meta_ephemeris_type": 0,
        "meta_classification_type": "U",
        "meta_norad_cat_id": 29800,
        "meta_element_set_no": 999,
        "meta_rev_at_epoch": 95413,
        "meta_bstar": 0.0018151168,
        "meta_mean_motion_dot": 2.763e-05,
        "meta_mean_motion_ddot": 0,
        "tle_line1": "1 29800U 99025CS  25335.05366619  .00002763  00000+0  18151-2 0  9993",
        "tle_line2": "2 29800  98.2913 357.7793 0132986 260.0259 155.8500 13.98467848954131"
      },
      "geometry": {
        "type": "Point",
        "coordinates": [
          155.76163264795312,
          -69.75016009665302
        ]
      }
    },
    {
      "type": "Feature",
      "properties": {
        "norad_id": 29801,
        "name": "FENGYUN 1C DEB",
        "group": "fengyun-1c-debris",
        "lat": -51.907053658123694,
        "lon": 45.87641836995036,
        "alt_km": 747.6708982747432,
        "timestamp": "2025-12-02T10:50:47.545391+00:00",
        "meta_object_name": "FENGYUN 1C DEB",
        "meta_object_id": "1999-025CT",
        "meta_epoch": "2025-12-02T03:50:10.487904",
        "meta_mean_motion": 14.35874154,
        "meta_eccentricity": 0.0103106,
        "meta_inclination": 98.7947,
        "meta_ra_of_asc_node": 236.9688,
        "meta_arg_of_pericenter": 298.8936,
        "meta_mean_anomaly": 225.8616,
        "meta_ephemeris_type": 0,
        "meta_classification_type": "U",
        "meta_norad_cat_id": 29801,
        "meta_element_set_no": 999,
        "meta_rev_at_epoch": 98789,
        "meta_bstar": 0.00025229,
        "meta_mean_motion_dot": 7.28e-06,
        "meta_mean_motion_ddot": 0,
        "tle_line1": "1 29801U 99025CT  25336.15984361  .00000728  00000+0  25229-3 0  9990",
        "tle_line2": "2 29801  98.7947 236.9688 0103106 298.8936 225.8616 14.35874154987897"
      },
      "geometry": {
        "type": "Point",
        "coordinates": [
          45.87641836995036,
          -51.907053658123694
        ]
      }
    },
    {
      "type": "Feature",
      "properties": {
        "norad_id": 29802,
        "name": "FENGYUN 1C DEB",
        "group": "fengyun-1c-debris",
        "lat": -33.2376145609784,
        "lon": 90.82910299567418,
        "alt_km": 674.8800981017466,
        "timestamp": "2025-12-02T10:50:47.545401+00:00",
        "meta_object_name": "FENGYUN 1C DEB",
        "meta_object_id": "1999-025CU",
        "meta_epoch": "2025-12-01T19:10:03.271872",
        "meta_mean_motion": 14.61833161,
        "meta_eccentricity": 0.0036862,
        "meta_inclination": 98.6193,
        "meta_ra_of_asc_node": 84.4437,
        "meta_arg_of_pericenter": 13.4497,
        "meta_mean_anomaly": 117.2807,
        "meta_ephemeris_type": 0,
        "meta_classification_type": "U",
        "meta_norad_cat_id": 29802,
        "meta_element_set_no": 999,
        "meta_rev_at_epoch": 98313,
        "meta_bstar": 0.002543,
        "meta_mean_motion_dot": 0.00012795,
        "meta_mean_motion_ddot": 0,
        "tle_line1": "1 29802U 99025CU  25335.79864898  .00012795  00000+0  25430-2 0  9992",
        "tle_line2": "2 29802  98.6193  84.4437 0036862  13.4497 117.2807 14.61833161983136"
      },
      "geometry": {
        "type": "Point",
        "coordinates": [
          90.82910299567418,
          -33.2376145609784
        ]
      }
    },
    {
      "type": "Feature",
      "properties": {
        "norad_id": 29804,
        "name": "FENGYUN 1C DEB",
        "group": "fengyun-1c-debris",
        "lat": -80.69609411314538,
        "lon": 56.08865247901361,
        "alt_km": 848.0096004340157,
        "timestamp": "2025-12-02T10:50:47.545411+00:00",
        "meta_object_name": "FENGYUN 1C DEB",
        "meta_object_id": "1999-025CW",
        "meta_epoch": "2025-12-01T23:26:15.063936",
        "meta_mean_motion": 14.04314443,
        "meta_eccentricity": 0.0097577,
        "meta_inclination": 98.8057,
        "meta_ra_of_asc_node": 344.513,
        "meta_arg_of_pericenter": 332.1603,
        "meta_mean_anomaly": 59.8411,
        "meta_ephemeris_type": 0,
        "meta_classification_type": "U",
        "meta_norad_cat_id": 29804,
        "meta_element_set_no": 999,
        "meta_rev_at_epoch": 96743,
        "meta_bstar": 0.00013792,
        "meta_mean_motion_dot": 1.85e-06,
        "meta_mean_motion_ddot": 0,
        "tle_line1": "1 29804U 99025CW  25335.97656324  .00000185  00000+0  13792-3 0  9996",
        "tle_line2": "2 29804  98.8057 344.5130 0097577 332.1603  59.8411 14.04314443967430"
      },
      "geometry": {
        "type": "Point",
        "coordinates": [
          56.08865247901361,
          -80.69609411314538
        ]
      }
    },
    {
      "type": "Feature",
      "properties": {
        "norad_id": 29805,
        "name": "FENGYUN 1C DEB",
        "group": "fengyun-1c-debris",
        "lat": 15.7471494822312,
        "lon": -149.45272885640975,
        "alt_km": 994.5764132012264,
        "timestamp": "2025-12-02T10:50:47.545420+00:00",
        "meta_object_name": "FENGYUN 1C DEB",
        "meta_object_id": "1999-025CX",
        "meta_epoch": "2025-12-02T03:01:56.693568",
        "meta_mean_motion": 13.72650845,
        "meta_eccentricity": 0.0187696,
        "meta_inclination": 99.4566,
        "meta_ra_of_asc_node": 27.5322,
        "meta_arg_of_pericenter": 257.4729,
        "meta_mean_anomaly": 100.5366,
        "meta_ephemeris_type": 0,
        "meta_classification_type": "U",
        "meta_norad_cat_id": 29805,
        "meta_element_set_no": 999,
        "meta_rev_at_epoch": 94557,
        "meta_bstar": 0.00020905,
        "meta_mean_motion_dot": 1.72e-06,
        "meta_mean_motion_ddot": 0,
        "tle_line1": "1 29805U 99025CX  25336.12635062  .00000172  00000+0  20905-3 0  9991",
        "tle_line2": "2 29805  99.4566  27.5322 0187696 257.4729 100.5366 13.72650845945571"
      },
      "geometry": {
        "type": "Point",
        "coordinates": [
          -149.45272885640975,
          15.7471494822312
        ]
      }
    },
    {
      "type": "Feature",
      "properties": {
        "norad_id": 29806,
        "name": "FENGYUN 1C DEB",
        "group": "fengyun-1c-debris",
        "lat": -1.3899198349125388,
        "lon": -7.253167560261718,
        "alt_km": 851.0321260346846,
        "timestamp": "2025-12-02T10:50:47.545430+00:00",
        "meta_object_name": "FENGYUN 1C DEB",
        "meta_object_id": "1999-025CY",
        "meta_epoch": "2025-12-02T00:54:52.208928",
        "meta_mean_motion": 14.11972823,
        "meta_eccentricity": 0.0027486,
        "meta_inclination": 98.7131,
        "meta_ra_of_asc_node": 352.1316,
        "meta_arg_of_pericenter": 283.3401,
        "meta_mean_anomaly": 132.6755,
        "meta_ephemeris_type": 0,
        "meta_classification_type": "U",
        "meta_norad_cat_id": 29806,
        "meta_element_set_no": 999,
        "meta_rev_at_epoch": 96988,
        "meta_bstar": 0.00059801,
        "meta_mean_motion_dot": 1.055e-05,
        "meta_mean_motion_ddot": 0,
        "tle_line1": "1 29806U 99025CY  25336.03810427  .00001055  00000+0  59801-3 0  9990",
        "tle_line2": "2 29806  98.7131 352.1316 0027486 283.3401 132.6755 14.11972823969882"
      },
      "geometry": {
        "type": "Point",
        "coordinates": [
          -7.253167560261718,
          -1.3899198349125388
        ]
      }
    }
  ]
}